$$SOE
2460154.500000000, A.D. 2023-Jul-29 00:00:00.0000, 3.549687363341215E+07, -4.857873574361887E+08, 4.947995807540715E+06,
2460161.500000000, A.D. 2023-Aug-05 00:00:00.0000, 4.523902791267096E+07, -4.860729504281540E+08, 4.568206815240115E+06,
2460168.500000000, A.D. 2023-Aug-12 00:00:00.0000, 5.496225830398345E+07, -4.861557456988526E+08, 4.186513108445078E+06,
2460175.500000000, A.D. 2023-Aug-19 00:00:00.0000, 6.466265674683672E+07, -4.860370454662788E+08, 3.803085558724195E+06,
2460182.500000000, A.D. 2023-Aug-26 00:00:00.0000, 7.433637474664149E+07, -4.857182093534934E+08, 3.418093425391763E+06,
2460189.500000000, A.D. 2023-Sep-02 00:00:00.0000, 8.397962317399211E+07, -4.852006522726989E+08, 3.031704336540639E+06,
2460196.500000000, A.D. 2023-Sep-09 00:00:00.0000, 9.358867202871503E+07, -4.844858424918875E+08, 2.644084261536002E+06,
2460203.500000000, A.D. 2023-Sep-16 00:00:00.0000, 1.031598503409492E+08, -4.835752999413434E+08, 2.255397454683632E+06,
2460210.500000000, A.D. 2023-Sep-23 00:00:00.0000, 1.126895466293128E+08, -4.824705944726562E+08, 1.865806355281919E+06,
2460217.500000000, A.D. 2023-Sep-30 00:00:00.0000, 1.221742095798205E+08, -4.811733428788638E+08, 1.475471572513312E+06,
2460224.500000000, A.D. 2023-Oct-07 00:00:00.0000, 1.316103465946540E+08, -4.796852052170903E+08, 1.084552126683384E+06,
2460231.500000000, A.D. 2023-Oct-14 00:00:00.0000, 1.409945212538071E+08, -4.780078837445709E+08, 6.932055805871189E+05,
2460238.500000000, A.D. 2023-Oct-21 00:00:00.0000, 1.503233529219126E+08, -4.761431228638671E+08, 3.015878958325088E+05,
2460245.500000000, A.D. 2023-Oct-28 00:00:00.0000, 1.595935170792219E+08, -4.740927078166326E+08, -9.014667039385438E+04,
2460252.500000000, A.D. 2023-Nov-04 00:00:00.0000, 1.688017451294415E+08, -4.718584628955531E+08, -4.818455762481689E+05,
2460259.500000000, A.D. 2023-Nov-11 00:00:00.0000, 1.779448238644916E+08, -4.694422497732036E+08, -8.733579789844751E+05,
2460266.500000000, A.D. 2023-Nov-18 00:00:00.0000, 1.870195948080160E+08, -4.668459660108616E+08, -1.264534716788828E+06,
2460273.500000000, A.D. 2023-Nov-25 00:00:00.0000, 1.960229535126174E+08, -4.640715437232875E+08, -1.655228293424010E+06,
2460280.500000000, A.D. 2023-Dec-02 00:00:00.0000, 2.049518488410878E+08, -4.611209484090096E+08, -2.045292869150519E+06,
2460287.500000000, A.D. 2023-Dec-09 00:00:00.0000, 2.138032823117236E+08, -4.579961780033467E+08, -2.434584269907892E+06,
2460294.500000000, A.D. 2023-Dec-16 00:00:00.0000, 2.225743077977183E+08, -4.546992621403145E+08, -2.822960040159822E+06,
2460301.500000000, A.D. 2023-Dec-23 00:00:00.0000, 2.312620319313689E+08, -4.512322609352953E+08, -3.210279515259147E+06,
2460308.500000000, A.D. 2023-Dec-30 00:00:00.0000, 2.398636138745249E+08, -4.475972622386507E+08, -3.596403704790503E+06,
2460315.500000000, A.D. 2024-Jan-06 00:00:00.0000, 2.483762626838072E+08, -4.437963797194722E+08, -3.981195017511785E+06,
2460322.500000000, A.D. 2024-Jan-13 00:00:00.0000, 2.567972354446827E+08, -4.398317535840291E+08, -4.364517266961366E+06,
2460329.500000000, A.D. 2024-Jan-20 00:00:00.0000, 2.651238374000252E+08, -4.357055508428132E+08, -4.746235818232089E+06,
2460336.500000000, A.D. 2024-Jan-27 00:00:00.0000, 2.733534220463009E+08, -4.314199644732091E+08, -5.126217636815906E+06,
2460343.500000000, A.D. 2024-Feb-03 00:00:00.0000, 2.814833907704839E+08, -4.269772124254908E+08, -5.504331278030455E+06,
2460350.500000000, A.D. 2024-Feb-10 00:00:00.0000, 2.895111923064129E+08, -4.223795367622089E+08, -5.880446866524398E+06,
2460357.500000000, A.D. 2024-Feb-17 00:00:00.0000, 2.974343221505256E+08, -4.176292029220527E+08, -6.254436078166336E+06,
2460364.500000000, A.D. 2024-Feb-24 00:00:00.0000, 3.052503219738921E+08, -4.127284990924110E+08, -6.626172126607835E+06,
2460371.500000000, A.D. 2024-Mar-02 00:00:00.0000, 3.129567790605742E+08, -4.076797357219951E+08, -6.995529760046691E+06,
2460378.500000000, A.D. 2024-Mar-09 00:00:00.0000, 3.205513259116405E+08, -4.024852452349328E+08, -7.362385286217183E+06,
2460385.500000000, A.D. 2024-Mar-16 00:00:00.0000, 3.280316404107804E+08, -3.971473817475738E+08, -7.726616645835936E+06,
2460392.500000000, A.D. 2024-Mar-23 00:00:00.0000, 3.353954464486257E+08, -3.916685196777562E+08, -8.088103434407562E+06,
2460399.500000000, A.D. 2024-Mar-30 00:00:00.0000, 3.426405127649115E+08, -3.860510512720436E+08, -8.446726669054419E+06,
2460406.500000000, A.D. 2024-Apr-06 00:00:00.0000, 3.497646502645629E+08, -3.802973864162044E+08, -8.802368599190891E+06,
2460413.500000000, A.D. 2024-Apr-13 00:00:00.0000, 3.567657113600035E+08, -3.744099538899823E+08, -9.154912818539470E+06,
2460420.500000000, A.D. 2024-Apr-20 00:00:00.0000, 3.636415903897272E+08, -3.683912013885339E+08, -9.504244372435093E+06,
2460427.500000000, A.D. 2024-Apr-27 00:00:00.0000, 3.703902235978686E+08, -3.622435948719909E+08, -9.850249767113119E+06,
2460434.500000000, A.D. 2024-May-04 00:00:00.0000, 3.770095887636217E+08, -3.559696179464728E+08, -1.019281694646163E+07,
2460441.500000000, A.D. 2024-May-11 00:00:00.0000, 3.834977047192964E+08, -3.495717713778126E+08, -1.053183526633681E+07,
2460448.500000000, A.D. 2024-May-18 00:00:00.0000, 3.898526308392135E+08, -3.430525727154142E+08, -1.086719547207986E+07,
2460455.500000000, A.D. 2024-May-25 00:00:00.0000, 3.960724665242310E+08, -3.364145560321111E+08, -1.119878968194413E+07,
2460462.500000000, A.D. 2024-Jun-01 00:00:00.0000, 4.021553507416870E+08, -3.296602718358873E+08, -1.152651138645768E+07,
2460469.500000000, A.D. 2024-Jun-08 00:00:00.0000, 4.080994618672037E+08, -3.227922871745221E+08, -1.185025548801416E+07,
2460476.500000000, A.D. 2024-Jun-15 00:00:00.0000, 4.139030182286294E+08, -3.158131853863138E+08, -1.216991837254702E+07,
2460483.500000000, A.D. 2024-Jun-22 00:00:00.0000, 4.195642783482115E+08, -3.087255643209494E+08, -1.248539782475460E+07,
2460490.500000000, A.D. 2024-Jun-29 00:00:00.0000, 4.250815387619358E+08, -3.015320348511335E+08, -1.279659274082693E+07,
2460497.500000000, A.D. 2024-Jul-06 00:00:00.0000, 4.304531320604800E+08, -2.942352221448997E+08, -1.310340308309075E+07,
2460504.500000000, A.D. 2024-Jul-13 00:00:00.0000, 4.356774271010910E+08, -2.868377668727879E+08, -1.340573002447906E+07,
2460511.500000000, A.D. 2024-Jul-20 00:00:00.0000, 4.407528294055458E+08, -2.793423252002336E+08, -1.370347600674428E+07,
2460518.500000000, A.D. 2024-Jul-27 00:00:00.0000, 4.456777810888475E+08, -2.717515685240684E+08, -1.399654473065902E+07,
2460525.500000000, A.D. 2024-Aug-03 00:00:00.0000, 4.504507605919408E+08, -2.640681833274100E+08, -1.428484113396955E+07,
2460532.500000000, A.D. 2024-Aug-10 00:00:00.0000, 4.550702823844416E+08, -2.562948711565695E+08, -1.456827137282975E+07,
2460539.500000000, A.D. 2024-Aug-17 00:00:00.0000, 4.595348966848249E+08, -2.484343486972994E+08, -1.484674280948633E+07,
2460546.500000000, A.D. 2024-Aug-24 00:00:00.0000, 4.638431892258501E+08, -2.404893479715756E+08, -1.512016401083356E+07,
2460553.500000000, A.D. 2024-Aug-31 00:00:00.0000, 4.679937811805083E+08, -2.324626167150728E+08, -1.538844477374375E+07,
2460560.500000000, A.D. 2024-Sep-07 00:00:00.0000, 4.719853296136643E+08, -2.243569188071397E+08, -1.565149620065211E+07,
2460567.500000000, A.D. 2024-Sep-14 00:00:00.0000, 4.758165285452434E+08, -2.161750337554247E+08, -1.590923075205363E+07,
2460574.500000000, A.D. 2024-Sep-21 00:00:00.0000, 4.794861085978346E+08, -2.079197548216719E+08, -1.616156205628961E+07,
2460581.500000000, A.D. 2024-Sep-28 00:00:00.0000, 4.829928347421200E+08, -1.995938890162883E+08, -1.640840469591203E+07,
2460588.500000000, A.D. 2024-Oct-05 00:00:00.0000, 4.863355058095455E+08, -1.912002589590729E+08, -1.664967430732341E+07,
2460595.500000000, A.D. 2024-Oct-12 00:00:00.0000, 4.895129554120608E+08, -1.827417036246892E+08, -1.688528771721955E+07,
2460602.500000000, A.D. 2024-Oct-19 00:00:00.0000, 4.925240525191055E+08, -1.742210782429939E+08, -1.711516297744527E+07,
2460609.500000000, A.D. 2024-Oct-26 00:00:00.0000, 4.953677016603734E+08, -1.656412541551756E+08, -1.733921936083409E+07,
2460616.500000000, A.D. 2024-Nov-02 00:00:00.0000, 4.980428430123393E+08, -1.570051187736162E+08, -1.755737735378149E+07,
2460623.500000000, A.D. 2024-Nov-09 00:00:00.0000, 5.005484524655420E+08, -1.483155756242648E+08, -1.776955865271396E+07,
2460630.500000000, A.D. 2024-Nov-16 00:00:00.0000, 5.028835416985781E+08, -1.395755444707119E+08, -1.797568616677675E+07,
2460637.500000000, A.D. 2024-Nov-23 00:00:00.0000, 5.050471583052945E+08, -1.307879615691545E+08, -1.817568403508136E+07,
2460644.500000000, A.D. 2024-Nov-30 00:00:00.0000, 5.070383861824863E+08, -1.219557800957250E+08, -1.836947768105669E+07,
2460651.500000000, A.D. 2024-Dec-07 00:00:00.0000, 5.088563465965548E+08, -1.130819703234632E+08, -1.855699390791788E+07,
2460658.500000000, A.D. 2024-Dec-14 00:00:00.0000, 5.105001992411165E+08, -1.041695183223341E+08, -1.873816087190137E+07,
2460665.500000000, A.D. 2024-Dec-21 00:00:00.0000, 5.119691409695873E+08, -9.522142442177227E+07, -1.891290782183236E+07,
2460672.500000000, A.D. 2024-Dec-28 00:00:00.0000, 5.132624041768328E+08, -8.624070440320118E+07, -1.908116502835415E+07,
2460679.500000000, A.D. 2025-Jan-04 00:00:00.0000, 5.143792574271880E+08, -7.723039104586649E+07, -1.924286394671949E+07,
2460686.500000000, A.D. 2025-Jan-11 00:00:00.0000, 5.153190065080900E+08, -6.819353436530799E+07, -1.939793731022766E+07,
2460693.500000000, A.D. 2025-Jan-18 00:00:00.0000, 5.160809949931294E+08, -5.913320146268068E+07, -1.954631914504855E+07,
2460700.500000000, A.D. 2025-Jan-25 00:00:00.0000, 5.166646045584522E+08, -5.005247645883896E+07, -1.968794476731050E+07,
2460707.500000000, A.D. 2025-Feb-01 00:00:00.0000, 5.170692552422952E+08, -4.095446054247916E+07, -1.982275078205647E+07,
2460714.500000000, A.D. 2025-Feb-08 00:00:00.0000, 5.172944057063829E+08, -3.184227211169979E+07, -1.995067508759878E+07,
$$EOE